start=new Date('2022-03-05T00:00:00.000Z').valueOf();
sats=[{"SEMIMAJOR_AXIS":"6925.331","MEAN_MOTION_DDOT":"0.0000000000000","INCLINATION":"53.0556","COUNTRY_CODE":"US","ARG_OF_PERICENTER":"71.4257","MEAN_ELEMENT_THEORY":"SGP4","APOAPSIS":"548.422","REF_FRAME":"TEME","BSTAR":"0.00002814300000","FILE":"3344863","REV_AT_EPOCH":"7884","RCS_SIZE":"LARGE","TIME_SYSTEM":"UTC","TLE_LINE1":"1 46563U 20070AH  22063.80964789  .00000138  00000-0  28143-4 0  9991","OBJECT_TYPE":"PAYLOAD","MEAN_MOTION":"15.06405815","GP_ID":"197904713","ELEMENT_SET_NO":"999","MEAN_MOTION_DOT":"0.00000138","LAUNCH_DATE":"2020-10-06","EPOCH":"2022-03-04T19:25:53.577696","PERIAPSIS":"545.969","CLASSIFICATION_TYPE":"U","SITE":"AFETR","PERIOD":"95.592","ECCENTRICITY":"0.00017710","OBJECT_NAME":"STARLINK-1730","MEAN_ANOMALY":"288.6924","OBJECT_ID":"2020-070AH","CENTER_NAME":"EARTH","DECAY_DATE":null,"EPHEMERIS_TYPE":"0","RA_OF_ASC_NODE":"257.2042","TLE_LINE2":"2 46563  53.0556 257.2042 0001771  71.4257 288.6924 15.06405815 78845","NORAD_CAT_ID":"46563"},{"OBJECT_NAME":"STARLINK-1733","MEAN_ANOMALY":"277.6084","CENTER_NAME":"EARTH","OBJECT_ID":"2020-070AJ","ECCENTRICITY":"0.00014300","PERIOD":"95.592","SITE":"AFETR","CLASSIFICATION_TYPE":"U","PERIAPSIS":"546.208","EPOCH":"2022-03-04T18:59:21.247296","LAUNCH_DATE":"2020-10-06","NORAD_CAT_ID":"46564","TLE_LINE2":"2 46564  53.0526 257.3012 0001430  82.5067 277.6084 15.06404852 78840","RA_OF_ASC_NODE":"257.3012","EPHEMERIS_TYPE":"0","DECAY_DATE":null,"REV_AT_EPOCH":"7884","FILE":"3344863","BSTAR":"0.00015964000000","APOAPSIS":"548.189","REF_FRAME":"TEME","MEAN_ELEMENT_THEORY":"SGP4","ARG_OF_PERICENTER":"82.5067","COUNTRY_CODE":"US","INCLINATION":"53.0526","MEAN_MOTION_DDOT":"0.0000000000000","SEMIMAJOR_AXIS":"6925.334","MEAN_MOTION_DOT":"0.00002097","ELEMENT_SET_NO":"999","GP_ID":"197904956","OBJECT_TYPE":"PAYLOAD","MEAN_MOTION":"15.06404852","TIME_SYSTEM":"UTC","TLE_LINE1":"1 46564U 20070AJ  22063.79121814  .00002097  00000-0  15964-3 0  9996","RCS_SIZE":"LARGE"},{"PERIAPSIS":"546.008","CLASSIFICATION_TYPE":"U","SITE":"AFETR","LAUNCH_DATE":"2020-10-06","EPOCH":"2022-03-04T18:27:31.260384","ECCENTRICITY":"0.00017620","OBJECT_ID":"2020-070AK","MEAN_ANOMALY":"290.8192","OBJECT_NAME":"STARLINK-1735","CENTER_NAME":"EARTH","PERIOD":"95.592","EPHEMERIS_TYPE":"0","DECAY_DATE":null,"NORAD_CAT_ID":"46565","RA_OF_ASC_NODE":"257.3932","TLE_LINE2":"2 46565  53.0554 257.3932 0001762  69.2986 290.8192 15.06395045 78832","ARG_OF_PERICENTER":"69.2986","SEMIMAJOR_AXIS":"6925.364","MEAN_MOTION_DDOT":"0.0000000000000","INCLINATION":"53.0554","COUNTRY_CODE":"US","REV_AT_EPOCH":"7883","APOAPSIS":"548.449","REF_FRAME":"TEME","MEAN_ELEMENT_THEORY":"SGP4","BSTAR":"0.00002182800000","FILE":"3344863","TIME_SYSTEM":"UTC","TLE_LINE1":"1 46565U 20070AK  22063.76911181  .00000043  00000-0  21828-4 0  9994","OBJECT_TYPE":"PAYLOAD","MEAN_MOTION":"15.06395045","RCS_SIZE":"LARGE","ELEMENT_SET_NO":"999","MEAN_MOTION_DOT":"0.00000043","GP_ID":"197903712"},{"DECAY_DATE":null,"EPHEMERIS_TYPE":"0","RA_OF_ASC_NODE":"257.1568","TLE_LINE2":"2 46566  53.0529 257.1568 0001608  63.7505 296.3649 15.06404267 78849","NORAD_CAT_ID":"46566","LAUNCH_DATE":"2020-10-06","EPOCH":"2022-03-04T19:41:48.759936","PERIAPSIS":"546.087","CLASSIFICATION_TYPE":"U","SITE":"AFETR","PERIOD":"95.592","ECCENTRICITY":"0.00016080","MEAN_ANOMALY":"296.3649","OBJECT_NAME":"STARLINK-1740","OBJECT_ID":"2020-070AL","CENTER_NAME":"EARTH","RCS_SIZE":"LARGE","TIME_SYSTEM":"UTC","TLE_LINE1":"1 46566U 20070AL  22063.82070324  .00001922  00000-0  14785-3 0  9997","MEAN_MOTION":"15.06404267","OBJECT_TYPE":"PAYLOAD","GP_ID":"197903962","ELEMENT_SET_NO":"999","MEAN_MOTION_DOT":"0.00001922","SEMIMAJOR_AXIS":"6925.335","MEAN_MOTION_DDOT":"0.0000000000000","COUNTRY_CODE":"US","INCLINATION":"53.0529","ARG_OF_PERICENTER":"63.7505","APOAPSIS":"548.314","REF_FRAME":"TEME","MEAN_ELEMENT_THEORY":"SGP4","BSTAR":"0.00014785000000","FILE":"3344863","REV_AT_EPOCH":"7884"},{"REV_AT_EPOCH":"7885","BSTAR":"0.00000483750000","APOAPSIS":"548.276","MEAN_ELEMENT_THEORY":"SGP4","REF_FRAME":"TEME","FILE":"3344863","ARG_OF_PERICENTER":"76.1022","SEMIMAJOR_AXIS":"6925.372","INCLINATION":"53.0521","COUNTRY_CODE":"US","MEAN_MOTION_DDOT":"0.0000000000000","ELEMENT_SET_NO":"999","MEAN_MOTION_DOT":"-0.00000209","GP_ID":"197905213","TLE_LINE1":"1 46567U 20070AM  22063.85020213 -.00000209  00000-0  48375-5 0  9995","TIME_SYSTEM":"UTC","MEAN_MOTION":"15.06392492","OBJECT_TYPE":"PAYLOAD","RCS_SIZE":"LARGE","MEAN_ANOMALY":"284.0134","OBJECT_NAME":"STARLINK-1741","OBJECT_ID":"2020-070AM","CENTER_NAME":"EARTH","ECCENTRICITY":"0.00015010","PERIOD":"95.593","PERIAPSIS":"546.197","SITE":"AFETR","CLASSIFICATION_TYPE":"U","LAUNCH_DATE":"2020-10-06","EPOCH":"2022-03-04T20:24:17.464032","NORAD_CAT_ID":"46567","RA_OF_ASC_NODE":"257.0383","TLE_LINE2":"2 46567  53.0521 257.0383 0001501  76.1022 284.0134 15.06392492 78850","EPHEMERIS_TYPE":"0","DECAY_DATE":null},{"ELEMENT_SET_NO":"999","MEAN_MOTION_DOT":"0.00201580","GP_ID":"197905456","TIME_SYSTEM":"UTC","TLE_LINE1":"1 46568U 20070AN  22063.86152419  .00201580  00000-0  22981-2 0  9997","MEAN_MOTION":"15.61012872","OBJECT_TYPE":"PAYLOAD","RCS_SIZE":"LARGE","REV_AT_EPOCH":"7930","APOAPSIS":"391.978","REF_FRAME":"TEME","MEAN_ELEMENT_THEORY":"SGP4","BSTAR":"0.00229810000000","FILE":"3344863","ARG_OF_PERICENTER":"272.9197","SEMIMAJOR_AXIS":"6762.867","MEAN_MOTION_DDOT":"0.0000000000000","INCLINATION":"53.0472","COUNTRY_CODE":"US","NORAD_CAT_ID":"46568","RA_OF_ASC_NODE":"224.9788","TLE_LINE2":"2 46568  53.0472 224.9788 0010714 272.9197  87.0590 15.61012872 79303","EPHEMERIS_TYPE":"0","DECAY_DATE":null,"ECCENTRICITY":"0.00107140","OBJECT_NAME":"STARLINK-1743","MEAN_ANOMALY":"87.0590","OBJECT_ID":"2020-070AN","CENTER_NAME":"EARTH","PERIOD":"92.248","PERIAPSIS":"377.486","CLASSIFICATION_TYPE":"U","SITE":"AFETR","LAUNCH_DATE":"2020-10-06","EPOCH":"2022-03-04T20:40:35.690016"},{"OBJECT_TYPE":"PAYLOAD","MEAN_MOTION":"15.06402718","TIME_SYSTEM":"UTC","TLE_LINE1":"1 46569U 20070AP  22063.79858805  .00000212  00000-0  33143-4 0  9995","RCS_SIZE":"LARGE","MEAN_MOTION_DOT":"0.00000212","ELEMENT_SET_NO":"999","GP_ID":"197904212","ARG_OF_PERICENTER":"69.9923","MEAN_MOTION_DDOT":"0.0000000000000","COUNTRY_CODE":"US","INCLINATION":"53.0538","SEMIMAJOR_AXIS":"6925.340","REV_AT_EPOCH":"7884","FILE":"3344863","APOAPSIS":"548.290","REF_FRAME":"TEME","MEAN_ELEMENT_THEORY":"SGP4","BSTAR":"0.00003314300000","EPHEMERIS_TYPE":"0","DECAY_DATE":null,"NORAD_CAT_ID":"46569","TLE_LINE2":"2 46569  53.0538 257.2522 0001567  69.9923 290.1235 15.06402718 78841","RA_OF_ASC_NODE":"257.2522","CLASSIFICATION_TYPE":"U","SITE":"AFETR","PERIAPSIS":"546.120","EPOCH":"2022-03-04T19:09:58.007520","LAUNCH_DATE":"2020-10-06","ECCENTRICITY":"0.00015670","MEAN_ANOMALY":"290.1235","OBJECT_NAME":"STARLINK-1747","CENTER_NAME":"EARTH","OBJECT_ID":"2020-070AP","PERIOD":"95.592"},{"PERIOD":"95.593","OBJECT_NAME":"STARLINK-1748","MEAN_ANOMALY":"245.6357","CENTER_NAME":"EARTH","OBJECT_ID":"2020-070AQ","ECCENTRICITY":"0.00020830","EPOCH":"2022-03-04T20:08:22.764768","LAUNCH_DATE":"2020-10-06","SITE":"AFETR","CLASSIFICATION_TYPE":"U","PERIAPSIS":"545.827","TLE_LINE2":"2 46570  53.0572 257.0767 0002083 114.4850 245.6357 15.06381699 78843","RA_OF_ASC_NODE":"257.0767","NORAD_CAT_ID":"46570","DECAY_DATE":null,"EPHEMERIS_TYPE":"0","FILE":"3344863","BSTAR":"0.00000298270000","MEAN_ELEMENT_THEORY":"SGP4","APOAPSIS":"548.712","REF_FRAME":"TEME","REV_AT_EPOCH":"7884","INCLINATION":"53.0572","COUNTRY_CODE":"US","MEAN_MOTION_DDOT":"0.0000000000000","SEMIMAJOR_AXIS":"6925.405","ARG_OF_PERICENTER":"114.4850","GP_ID":"197904462","MEAN_MOTION_DOT":"-0.00000237","ELEMENT_SET_NO":"999","RCS_SIZE":"LARGE","MEAN_MOTION":"15.06381699","OBJECT_TYPE":"PAYLOAD","TIME_SYSTEM":"UTC","TLE_LINE1":"1 46570U 20070AQ  22063.83915237 -.00000237  00000-0  29827-5 0  9998"},{"LAUNCH_DATE":"2020-10-06","EPOCH":"2022-03-04T17:13:58.523808","PERIAPSIS":"342.884","CLASSIFICATION_TYPE":"U","SITE":"AFETR","PERIOD":"91.429","ECCENTRICITY":"0.00026070","MEAN_ANOMALY":"141.7551","CENTER_NAME":"EARTH","OBJECT_ID":"2020-070AR","OBJECT_NAME":"STARLINK-1753","DECAY_DATE":null,"EPHEMERIS_TYPE":"0","RA_OF_ASC_NODE":"218.2734","TLE_LINE2":"2 46571  53.0510 218.2734 0002607 218.3282 141.7551 15.74998639 79389","NORAD_CAT_ID":"46571","SEMIMAJOR_AXIS":"6722.772","MEAN_MOTION_DDOT":"0.0000000000000","INCLINATION":"53.0510","COUNTRY_CODE":"US","ARG_OF_PERICENTER":"218.3282","APOAPSIS":"346.390","REF_FRAME":"TEME","MEAN_ELEMENT_THEORY":"SGP4","BSTAR":"0.00059771000000","FILE":"3344863","REV_AT_EPOCH":"7938","RCS_SIZE":"LARGE","TIME_SYSTEM":"UTC","TLE_LINE1":"1 46571U 20070AR  22063.71803847  .00091031  00000-0  59771-3 0  9999","MEAN_MOTION":"15.74998639","OBJECT_TYPE":"PAYLOAD","GP_ID":"197904714","ELEMENT_SET_NO":"999","MEAN_MOTION_DOT":"0.00091031"},{"ARG_OF_PERICENTER":"68.2096","SEMIMAJOR_AXIS":"6925.352","INCLINATION":"53.0549","COUNTRY_CODE":"US","MEAN_MOTION_DDOT":"0.0000000000000","REV_AT_EPOCH":"7857","BSTAR":"0.00008315700000","APOAPSIS":"548.277","REF_FRAME":"TEME","MEAN_ELEMENT_THEORY":"SGP4","FILE":"3344863","TIME_SYSTEM":"UTC","TLE_LINE1":"1 46572U 20070AS  22063.90364554  .00000957  00000-0  83157-4 0  9991","MEAN_MOTION":"15.06398888","OBJECT_TYPE":"PAYLOAD","RCS_SIZE":"LARGE","ELEMENT_SET_NO":"999","MEAN_MOTION_DOT":"0.00000957","GP_ID":"197904957","PERIAPSIS":"546.157","SITE":"AFETR","CLASSIFICATION_TYPE":"U","LAUNCH_DATE":"2020-10-06","EPOCH":"2022-03-04T21:41:14.974656","MEAN_ANOMALY":"291.9056","OBJECT_ID":"2020-070AS","CENTER_NAME":"EARTH","OBJECT_NAME":"STARLINK-1531","ECCENTRICITY":"0.00015310","PERIOD":"95.592","EPHEMERIS_TYPE":"0","DECAY_DATE":null,"NORAD_CAT_ID":"46572","RA_OF_ASC_NODE":"276.7991","TLE_LINE2":"2 46572  53.0549 276.7991 0001531  68.2096 291.9056 15.06398888 78579"}];
